NORAD_CAT_ID,OBJECT_NAME,OBJECT_TYPE,EPOCH,MEAN_MOTION,ECCENTRICITY,INCLINATION,RA_OF_ASC_NODE,ARG_OF_PERICENTER,MEAN_ANOMALY,BSTAR,MEAN_MOTION_DOT,MEAN_MOTION_DDOT,TLE_LINE0,TLE_LINE1,TLE_LINE2,SEMIMAJOR_AXIS,PERIOD,APOGEE,PERIGEE,DECAYED
55664.0,STARLINK-5480,PAYLOAD,2024-07-27 06:32:39,14.98333975,0.0003475,69.999,213.1913,267.8299,92.2462,3.9751e-05,3.81e-06,0.0,0 STARLINK-5480,1 55664U 23021AN  24209.27267523  .00000381  00000-0  39751-4 0  9996,2 55664  69.9990 213.1913 0003475 267.8299  92.2462 14.98333975 80849,6950.181,96.107,574.461,569.63,0.0
55664.0,STARLINK-5480,PAYLOAD,2024-07-27 09:44:52,14.98371806,0.0003492,69.9992,212.8544,259.0964,100.9803,0.00045028,5.29e-05,0.0,0 STARLINK-5480,1 55664U 23021AN  24209.40615855  .00005290  00000-0  45028-3 0  9993,2 55664  69.9992 212.8544 0003492 259.0964 100.9803 14.98371806 80568,6950.064,96.104,574.356,569.502,0.0
55664.0,STARLINK-5480,PAYLOAD,2024-07-28 04:58:31,14.98325468,0.0003848,69.9984,210.8342,271.4983,88.5735,1.3767e-05,7.1e-07,0.0,0 STARLINK-5480,1 55664U 23021AN  24210.20731193  .00000071  00000-0  13767-4 0  9995,2 55664  69.9984 210.8342 0003848 271.4983  88.5735 14.98325468 80688,6950.207,96.107,574.746,569.397,0.0
55664.0,STARLINK-5480,PAYLOAD,2024-07-28 09:46:56,14.98324582,0.0003757,69.9984,210.3289,269.2773,90.7956,-2.122e-05,-3.46e-06,0.0,0 STARLINK-5480,1 55664U 23021AN  24210.40759353 -.00000346  00000-0 -21220-4 0  9995,2 55664  69.9984 210.3289 0003757 269.2773  90.7956 14.98324582 81018,6950.21,96.107,574.686,569.463,0.0
55664.0,STARLINK-5480,PAYLOAD,2024-07-29 05:00:33,14.98324314,0.0003744,69.9985,208.3092,269.9541,90.1189,-6.3885e-05,-8.55e-06,0.0,0 STARLINK-5480,1 55664U 23021AN  24211.20871685 -.00000855  00000-0 -63885-4 0  9995,2 55664  69.9985 208.3092 0003744 269.9541  90.1189 14.98324314 80838,6950.21,96.107,574.678,569.473,0.0
55664.0,STARLINK-5480,PAYLOAD,2024-07-29 09:48:56,14.98348558,0.0003726,69.9989,207.8047,267.0142,93.0591,-0.0004456,-5.409e-05,0.0,0 STARLINK-5480,1 55664U 23021AN  24211.40899165 -.00005409  00000-0 -44560-3 0  9998,2 55664  69.9989 207.8047 0003726 267.0142  93.0591 14.98348558 80860,6950.136,96.106,574.59,569.411,0.0
55664.0,STARLINK-5480,PAYLOAD,2024-07-30 05:02:33,14.98321592,0.0003762,69.9989,205.7846,270.3135,89.7593,8.8672e-05,9.65e-06,0.0,0 STARLINK-5480,1 55664U 23021AN  24212.21011442  .00000965  00000-0  88672-4 0  9995,2 55664  69.9989 205.7846 0003762 270.3135  89.7593 14.98321592 80989,6950.219,96.108,574.699,569.469,0.0
55664.0,STARLINK-5480,PAYLOAD,2024-07-30 09:50:58,14.98323371,0.0003742,69.9989,205.2795,269.9725,90.1005,0.00010555,1.166e-05,0.0,0 STARLINK-5480,1 55664U 23021AN  24212.41039409  .00001166  00000-0  10555-3 0  9998,2 55664  69.9989 205.2795 0003742 269.9725  90.1005 14.98323371 81313,6950.213,96.107,574.679,569.478,0.0
55664.0,STARLINK-5480,PAYLOAD,2024-07-30 16:15:30,14.98326366,0.0003748,69.999,204.6063,270.0605,90.0124,0.00012883,1.444e-05,0.0,0 STARLINK-5480,1 55664U 23021AN  24212.67743292  .00001444  00000-0  12883-3 0  9993,2 55664  69.9990 204.6063 0003748 270.0605  90.0124 14.98326366 81354,6950.204,96.107,574.674,569.464,0.0
55664.0,STARLINK-5480,PAYLOAD,2024-07-31 05:04:34,14.98329511,0.0003745,69.9989,203.2597,269.8871,90.1859,0.00014795,1.673e-05,0.0,0 STARLINK-5480,1 55664U 23021AN  24213.21151236  .00001673  00000-0  14795-3 0  9993,2 55664  69.9989 203.2597 0003745 269.8871  90.1859 14.98329511 81134,6950.194,96.107,574.662,569.457,0.0
55664.0,STARLINK-5480,PAYLOAD,2024-07-31 08:16:50,14.98331669,0.0003717,69.999,202.9232,269.6847,90.3886,0.00016976,1.933e-05,0.0,0 STARLINK-5480,1 55664U 23021AN  24213.34503074  .00001933  00000-0  16976-3 0  9990,2 55664  69.9990 202.9232 0003717 269.6847  90.3886 14.98331669 81452,6950.188,96.107,574.636,569.469,0.0
55664.0,STARLINK-5480,PAYLOAD,2024-07-31 22:42:03,14.98327397,0.0003617,69.9993,201.409,267.4121,92.6624,4.9473e-05,4.97e-06,0.0,0 STARLINK-5480,1 55664U 23021AN  24213.94587704  .00000497  00000-0  49473-4 0  9991,2 55664  69.9993 201.4090 0003617 267.4121  92.6624 14.98327397 81549,6950.201,96.107,574.58,569.552,0.0
55664.0,STARLINK-5480,PAYLOAD,2024-08-01 05:06:36,14.98327811,0.0003609,69.9993,200.7356,267.6802,92.3944,4.968e-05,5e-06,0.0,0 STARLINK-5480,1 55664U 23021AN  24214.21291725  .00000500  00000-0  49680-4 0  9992,2 55664  69.9993 200.7356 0003609 267.6802  92.3944 14.98327811 81289,6950.2,96.107,574.573,569.556,0.0
55664.0,STARLINK-5480,PAYLOAD,2024-08-01 09:54:59,14.98331708,0.0003581,69.9993,200.2307,267.3461,92.7288,8.9223e-05,9.72e-06,0.0,0 STARLINK-5480,1 55664U 23021AN  24214.41319384  .00000972  00000-0  89223-4 0  9996,2 55664  69.9993 200.2307 0003581 267.3461  92.7288 14.98331708 81619,6950.188,96.107,574.541,569.564,0.0
55664.0,STARLINK-5480,PAYLOAD,2024-08-01 22:44:04,14.9833518,0.0003471,69.9995,198.8839,268.2928,91.7833,1.9794e-05,1.43e-06,0.0,0 STARLINK-5480,1 55664U 23021AN  24214.94727316  .00000143  00000-0  19794-4 0  9998,2 55664  69.9995 198.8839 0003471 268.2928  91.7833 14.98335180 81690,6950.177,96.107,574.454,569.629,0.0
55664.0,STARLINK-5480,PAYLOAD,2024-08-02 05:08:36,14.98335102,0.0003426,69.9996,198.2107,268.1014,91.9753,5.7516e-05,5.93e-06,0.0,0 STARLINK-5480,1 55664U 23021AN  24215.21431180  .00000593  00000-0  57516-4 0  9993,2 55664  69.9996 198.2107 0003426 268.1014  91.9753 14.98335102 81437,6950.177,96.107,574.423,569.661,0.0
55664.0,STARLINK-5480,PAYLOAD,2024-08-02 08:20:52,14.98335105,0.0003436,69.9996,197.8741,267.9464,92.1301,5.4593e-05,5.58e-06,0.0,0 STARLINK-5480,1 55664U 23021AN  24215.34783154  .00000558  00000-0  54593-4 0  9991,2 55664  69.9996 197.8741 0003436 267.9464  92.1301 14.98335105 81753,6950.177,96.107,574.43,569.654,0.0
55664.0,STARLINK-5480,PAYLOAD,2024-08-02 16:21:33,14.98326842,0.0003478,69.9992,197.032,269.9042,90.1718,0.00013291,1.493e-05,0.0,0 STARLINK-5480,1 55664U 23021AN  24215.68163498  .00001493  00000-0  13291-3 0  9999,2 55664  69.9992 197.0320 0003478 269.9042  90.1718 14.98326842 81505,6950.203,96.107,574.485,569.65,0.0
55664.0,STARLINK-5480,PAYLOAD,2024-08-03 08:22:53,14.98331179,0.0003503,69.9993,195.3489,269.2391,90.8366,6.7039e-05,7.07e-06,0.0,0 STARLINK-5480,1 55664U 23021AN  24216.34923321  .00000707  00000-0  67039-4 0  9999,2 55664  69.9993 195.3489 0003503 269.2391  90.8366 14.98331179 81901,6950.189,96.107,574.489,569.62,0.0
55664.0,STARLINK-5480,PAYLOAD,2024-08-03 16:23:34,14.98325853,0.0003465,69.9996,194.5068,269.3553,90.7209,-1.9778e-05,-3.29e-06,0.0,0 STARLINK-5480,1 55664U 23021AN  24216.68303897 -.00000329  00000-0 -19778-4 0  9995,2 55664  69.9996 194.5068 0003465 269.3553  90.7209 14.98325853 81655,6950.206,96.107,574.479,569.662,0.0
55664.0,STARLINK-5480,PAYLOAD,2024-08-03 22:48:07,14.98319667,0.0003428,69.9999,193.834,269.0418,91.0349,-8.9408e-05,-1.159e-05,0.0,0 STARLINK-5480,1 55664U 23021AN  24216.95008604 -.00001159  00000-0 -89408-4 0  9992,2 55664  69.9999 193.8340 0003428 269.0418  91.0349 14.98319667 81991,6950.225,96.108,574.472,569.707,0.0
55664.0,STARLINK-5480,PAYLOAD,2024-08-04 05:12:39,14.9831777,0.0003303,69.9998,193.1607,265.9545,94.1236,-8.6959e-05,-1.13e-05,0.0,0 STARLINK-5480,1 55664U 23021AN  24217.21712873 -.00001130  00000-0 -86959-4 0  9999,2 55664  69.9998 193.1607 0003303 265.9545  94.1236 14.98317770 81731,6950.231,96.108,574.391,569.8,0.0
55664.0,STARLINK-5480,PAYLOAD,2024-08-04 08:24:56,14.98318687,0.0003417,69.9998,192.8242,269.5426,90.5342,-8.9422e-05,-1.16e-05,0.0,0 STARLINK-5480,1 55664U 23021AN  24217.35064922 -.00001160  00000-0 -89422-4 0  9990,2 55664  69.9998 192.8242 0003417 269.5426  90.5342 14.98318687 82058,6950.228,96.108,574.468,569.718,0.0
55664.0,STARLINK-5480,PAYLOAD,2024-08-04 22:50:07,14.98330837,0.0003429,69.9997,191.3093,269.163,90.9136,9.6249e-05,1.056e-05,0.0,0 STARLINK-5480,1 55664U 23021AN  24217.95147908  .00001056  00000-0  96249-4 0  9999,2 55664  69.9997 191.3093 0003429 269.1630  90.9136 14.98330837 82147,6950.19,96.107,574.439,569.672,0.0
55664.0,STARLINK-5480,PAYLOAD,2024-08-05 05:14:39,14.9833703,0.0003418,69.9997,190.6363,268.7724,91.3044,0.00014514,1.639e-05,0.0,0 STARLINK-5480,1 55664U 23021AN  24218.21851447  .00001639  00000-0  14514-3 0  9990,2 55664  69.9997 190.6363 0003418 268.7724  91.3044 14.98337030 81881,6950.171,96.107,574.412,569.661,0.0
55664.0,STARLINK-5480,PAYLOAD,2024-08-05 14:51:28,14.98334136,0.0003205,70.0004,189.627,267.5819,92.4973,-3.4097e-05,-5e-06,0.0,0 STARLINK-5480,1 55664U 23021AN  24218.61907995 -.00000500  00000-0 -34097-4 0  9991,2 55664  70.0004 189.6270 0003205 267.5819  92.4973 14.98334136 81948,6950.18,96.107,574.273,569.818,0.0
55664.0,STARLINK-5480,PAYLOAD,2024-08-05 22:52:09,14.98322196,0.0003299,70.0002,188.7854,268.5149,91.5632,0.00017861,2.038e-05,0.0,0 STARLINK-5480,1 55664U 23021AN  24218.95288351  .00002038  00000-0  17861-3 0  9991,2 55664  70.0002 188.7854 0003299 268.5149  91.5632 14.98322196 82298,6950.217,96.107,574.375,569.789,0.0
55664.0,STARLINK-5480,PAYLOAD,2024-08-06 05:16:41,14.98322436,0.0003269,70.0001,188.1128,264.0939,95.9847,0.00015137,1.713e-05,0.0,0 STARLINK-5480,1 55664U 23021AN  24219.21992496  .00001713  00000-0  15137-3 0  9996,2 55664  70.0001 188.1128 0003269 264.0939  95.9847 14.98322436 82035,6950.216,96.107,574.353,569.809,0.0
55664.0,STARLINK-5480,PAYLOAD,2024-08-06 14:53:29,14.98329109,0.0003315,70.0001,187.1027,266.5956,93.4824,0.00015992,1.816e-05,0.0,0 STARLINK-5480,1 55664U 23021AN  24219.62048158  .00001816  00000-0  15992-3 0  9991,2 55664  70.0001 187.1027 0003315 266.5956  93.4824 14.98329109 82391,6950.196,96.107,574.365,569.757,0.0
55664.0,STARLINK-5480,PAYLOAD,2024-08-07 03:42:33,14.98340386,0.0003405,69.9997,185.7547,268.2838,91.7931,7.7256e-05,8.29e-06,0.0,0 STARLINK-5480,1 55664U 23021AN  24220.15455402  .00000829  00000-0  77256-4 0  9990,2 55664  69.9997 185.7547 0003405 268.2838  91.7931 14.98340386 82177,6950.161,96.106,574.392,569.659,0.0
